{"type": "FeatureCollection", "features": [ {"type": "Feature", "properties": {"norad_id": 33905, "name": "COSMOS 2251 DEB", "group": "cosmos-2251-debris", "lat": -73.87212677783896, "lon": -150.2881940810652, "alt_km": 776.5434447454381, "timestamp": "2025-12-22T15:43:49.402465+00:00", "meta": {"OBJECT_NAME": "COSMOS 2251 DEB", "OBJECT_ID": "1993-036DJ", "EPOCH": "2025-12-22T02:51:33.297696", "MEAN_MOTION": 14.35416308, "ECCENTRICITY": 0.00582858, "INCLINATION": 73.8867, "RA_OF_ASC_NODE": 299.2833, "ARG_OF_PERICENTER": 186.7926, "MEAN_ANOMALY": 192.7216, "EPHEMERIS_TYPE": 0, "CLASSIFICATION_TYPE": "U", "NORAD_CAT_ID": 33905, "ELEMENT_SET_NO": 999, "REV_AT_EPOCH": 87822, "BSTAR": 0.00050394638, "MEAN_MOTION_DOT": 1.448e-05, "MEAN_MOTION_DDOT": 0}, "tle": {"line1": "1 33905U 93036DJ  25356.11913539  .00001448  00000+0  50395-3 0  9995", "line2": "2 33905  73.8867 299.2833 0058285 186.7926 192.7216 14.35416308878224"}}, "geometry": {"type": "Point", "coordinates": [-150.2881940810652, -73.87212677783896]}}, {"type": "Feature", "properties": {"norad_id": 33906, "name": "COSMOS 2251 DEB", "group": "cosmos-2251-debris", "lat": -29.151183696836824, "lon": 131.82054573639968, "alt_km": 720.7109443432018, "timestamp": "2025-12-22T15:43:49.402475+00:00", "meta": {"OBJECT_NAME": "COSMOS 2251 DEB", "OBJECT_ID": "1993-036DK", "EPOCH": "2025-12-22T03:19:15.043584", "MEAN_MOTION": 14.57236337, "ECCENTRICITY": 0.00369122, "INCLINATION": 74.0308, "RA_OF_ASC_NODE": 303.6123, "ARG_OF_PERICENTER": 331.6721, "MEAN_ANOMALY": 47.5902, "EPHEMERIS_TYPE": 0, "CLASSIFICATION_TYPE": "U", "NORAD_CAT_ID": 33906, "ELEMENT_SET_NO": 999, "REV_AT_EPOCH": 88145, "BSTAR": 0.0018994004, "MEAN_MOTION_DOT": 8.645e-05, "MEAN_MOTION_DDOT": 0}, "tle": {"line1": "1 33906U 93036DK  25356.13836856  .00008645  00000+0  18994-2 0  9998", "line2": "2 33906  74.0308 303.6123 0036912 331.6721  47.5902 14.57236337881451"}}, "geometry": {"type": "Point", "coordinates": [131.82054573639968, -29.151183696836824]}}, {"type": "Feature", "properties": {"norad_id": 33907, "name": "COSMOS 2251 DEB", "group": "cosmos-2251-debris", "lat": -45.11951398154511, "lon": -1.024577478904653, "alt_km": 830.1374220529287, "timestamp": "2025-12-22T15:43:49.402486+00:00", "meta": {"OBJECT_NAME": "COSMOS 2251 DEB", "OBJECT_ID": "1993-036DL", "EPOCH": "2025-12-20T08:39:03.581568", "MEAN_MOTION": 14.30568878, "ECCENTRICITY": 0.01118938, "INCLINATION": 74.0693, "RA_OF_ASC_NODE": 19.8097, "ARG_OF_PERICENTER": 73.0053, "MEAN_ANOMALY": 306.2172, "EPHEMERIS_TYPE": 0, "CLASSIFICATION_TYPE": "U", "NORAD_CAT_ID": 33907, "ELEMENT_SET_NO": 999, "REV_AT_EPOCH": 86689, "BSTAR": 0.0011890274, "MEAN_MOTION_DOT": 3.297e-05, "MEAN_MOTION_DDOT": 0}, "tle": {"line1": "1 33907U 93036DL  25354.36045812  .00003297  00000+0  11890-2 0  9992", "line2": "2 33907  74.0693  19.8097 0111893  73.0053 306.2172 14.30568878866896"}}, "geometry": {"type": "Point", "coordinates": [-1.024577478904653, -45.11951398154511]}}, {"type": "Feature", "properties": {"norad_id": 33908, "name": "COSMOS 2251 DEB", "group": "cosmos-2251-debris", "lat": -55.25135433785862, "lon": 32.88467111375598, "alt_km": 732.9495653282838, "timestamp": "2025-12-22T15:43:49.402496+00:00", "meta": {"OBJECT_NAME": "COSMOS 2251 DEB", "OBJECT_ID": "1993-036DM", "EPOCH": "2025-12-21T13:00:35.945280", "MEAN_MOTION": 14.0740282, "ECCENTRICITY": 0.0222455, "INCLINATION": 73.8362, "RA_OF_ASC_NODE": 190.1458, "ARG_OF_PERICENTER": 212.033, "MEAN_ANOMALY": 146.7127, "EPHEMERIS_TYPE": 0, "CLASSIFICATION_TYPE": "U", "NORAD_CAT_ID": 33908, "ELEMENT_SET_NO": 999, "REV_AT_EPOCH": 85597, "BSTAR": 0.0016138, "MEAN_MOTION_DOT": 3.376e-05, "MEAN_MOTION_DDOT": 0}, "tle": {"line1": "1 33908U 93036DM  25355.54208270  .00003376  00000+0  16138-2 0  9991", "line2": "2 33908  73.8362 190.1458 0222455 212.0330 146.7127 14.07402820855973"}}, "geometry": {"type": "Point", "coordinates": [32.88467111375598, -55.25135433785862]}}, {"type": "Feature", "properties": {"norad_id": 33911, "name": "COSMOS 2251 DEB", "group": "cosmos-2251-debris", "lat": -69.44850823190296, "lon": 12.078765288176095, "alt_km": 661.7033096241339, "timestamp": "2025-12-22T15:43:49.402506+00:00", "meta": {"OBJECT_NAME": "COSMOS 2251 DEB", "OBJECT_ID": "1993-036DQ", "EPOCH": "2025-12-21T04:38:28.888224", "MEAN_MOTION": 14.75044552, "ECCENTRICITY": 0.0014043, "INCLINATION": 74.0901, "RA_OF_ASC_NODE": 145.3897, "ARG_OF_PERICENTER": 79.9548, "MEAN_ANOMALY": 336.3353, "EPHEMERIS_TYPE": 0, "CLASSIFICATION_TYPE": "U", "NORAD_CAT_ID": 33911, "ELEMENT_SET_NO": 999, "REV_AT_EPOCH": 88769, "BSTAR": 0.0015038, "MEAN_MOTION_DOT": 0.00010127, "MEAN_MOTION_DDOT": 0}, "tle": {"line1": "1 33911U 93036DQ  25355.19338991  .00010127  00000+0  15038-2 0  9990", "line2": "2 33911  74.0901 145.3897 0014043  79.9548 336.3353 14.75044552887692"}}, "geometry": {"type": "Point", "coordinates": [12.078765288176095, -69.44850823190296]}}, {"type": "Feature", "properties": {"norad_id": 33912, "name": "COSMOS 2251 DEB", "group": "cosmos-2251-debris", "lat": 39.691529653408296, "lon": -175.2068869765634, "alt_km": 722.9967418229562, "timestamp": "2025-12-22T15:43:49.402516+00:00", "meta": {"OBJECT_NAME": "COSMOS 2251 DEB", "OBJECT_ID": "1993-036DR", "EPOCH": "2025-12-21T18:06:38.906208", "MEAN_MOTION": 14.51941005, "ECCENTRICITY": 0.00113431, "INCLINATION": 74.0325, "RA_OF_ASC_NODE": 172.7426, "ARG_OF_PERICENTER": 251.6604, "MEAN_ANOMALY": 123.3498, "EPHEMERIS_TYPE": 0, "CLASSIFICATION_TYPE": "U", "NORAD_CAT_ID": 33912, "ELEMENT_SET_NO": 999, "REV_AT_EPOCH": 88564, "BSTAR": 0.00059485199, "MEAN_MOTION_DOT": 2.375e-05, "MEAN_MOTION_DDOT": 0}, "tle": {"line1": "1 33912U 93036DR  25355.75461697  .00002375  00000+0  59485-3 0  9994", "line2": "2 33912  74.0325 172.7426 0011343 251.6604 123.3498 14.51941005885647"}}, "geometry": {"type": "Point", "coordinates": [-175.2068869765634, 39.691529653408296]}}, {"type": "Feature", "properties": {"norad_id": 33913, "name": "COSMOS 2251 DEB", "group": "cosmos-2251-debris", "lat": 5.714978279083972, "lon": 166.70887186570005, "alt_km": 738.3058662751428, "timestamp": "2025-12-22T15:43:49.402527+00:00", "meta": {"OBJECT_NAME": "COSMOS 2251 DEB", "OBJECT_ID": "1993-036DS", "EPOCH": "2025-12-21T22:10:05.651328", "MEAN_MOTION": 14.48521672, "ECCENTRICITY": 0.00481606, "INCLINATION": 74.0319, "RA_OF_ASC_NODE": 166.4375, "ARG_OF_PERICENTER": 267.2744, "MEAN_ANOMALY": 243.9163, "EPHEMERIS_TYPE": 0, "CLASSIFICATION_TYPE": "U", "NORAD_CAT_ID": 33913, "ELEMENT_SET_NO": 999, "REV_AT_EPOCH": 88590, "BSTAR": 0.00050659552, "MEAN_MOTION_DOT": 1.902e-05, "MEAN_MOTION_DDOT": 0}, "tle": {"line1": "1 33913U 93036DS  25355.92367652  .00001902  00000+0  50660-3 0  9991", "line2": "2 33913  74.0319 166.4375 0048160 267.2744 243.9163 14.48521672885906"}}, "geometry": {"type": "Point", "coordinates": [166.70887186570005, 5.714978279083972]}}, {"type": "Feature", "properties": {"norad_id": 33914, "name": "COSMOS 2251 DEB", "group": "cosmos-2251-debris", "lat": 52.58037861021787, "lon": 156.86785355649783, "alt_km": 784.8042177398484, "timestamp": "2025-12-22T15:43:49.402541+00:00", "meta": {"OBJECT_NAME": "COSMOS 2251 DEB", "OBJECT_ID": "1993-036DT", "EPOCH": "2025-12-22T03:12:47.479104", "MEAN_MOTION": 13.71990067, "ECCENTRICITY": 0.03008187, "INCLINATION": 74.0911, "RA_OF_ASC_NODE": 359.613, "ARG_OF_PERICENTER": 100.3739, "MEAN_ANOMALY": 327.4283, "EPHEMERIS_TYPE": 0, "CLASSIFICATION_TYPE": "U", "NORAD_CAT_ID": 33914, "ELEMENT_SET_NO": 999, "REV_AT_EPOCH": 84210, "BSTAR": 0.00022001742, "MEAN_MOTION_DOT": 2.56e-06, "MEAN_MOTION_DDOT": 0}, "tle": {"line1": "1 33914U 93036DT  25356.13388286  .00000256  00000+0  22002-3 0  9992", "line2": "2 33914  74.0911 359.6130 0300818 100.3739 327.4283 13.71990067842101"}}, "geometry": {"type": "Point", "coordinates": [156.86785355649783, 52.58037861021787]}}, {"type": "Feature", "properties": {"norad_id": 33915, "name": "COSMOS 2251 DEB", "group": "cosmos-2251-debris", "lat": -24.869296050107003, "lon": 8.313404861449593, "alt_km": 828.9636335024388, "timestamp": "2025-12-22T15:43:49.402551+00:00", "meta": {"OBJECT_NAME": "COSMOS 2251 DEB", "OBJECT_ID": "1993-036DU", "EPOCH": "2025-12-22T07:32:25.063008", "MEAN_MOTION": 14.35103348, "ECCENTRICITY": 0.01040403, "INCLINATION": 74.043, "RA_OF_ASC_NODE": 16.5599, "ARG_OF_PERICENTER": 106.5256, "MEAN_ANOMALY": 266.2018, "EPHEMERIS_TYPE": 0, "CLASSIFICATION_TYPE": "U", "NORAD_CAT_ID": 33915, "ELEMENT_SET_NO": 999, "REV_AT_EPOCH": 87895, "BSTAR": 0.00032106557, "MEAN_MOTION_DOT": 9.48e-06, "MEAN_MOTION_DDOT": 0}, "tle": {"line1": "1 33915U 93036DU  25356.31417897  .00000948  00000+0  32107-3 0  9999", "line2": "2 33915  74.0430  16.5599 0104040 106.5256 266.2018 14.35103348878954"}}, "geometry": {"type": "Point", "coordinates": [8.313404861449593, -24.869296050107003]}}, {"type": "Feature", "properties": {"norad_id": 33916, "name": "COSMOS 2251 DEB", "group": "cosmos-2251-debris", "lat": -73.89156035352097, "lon": -57.63688671517323, "alt_km": 953.870948202124, "timestamp": "2025-12-22T15:43:49.402562+00:00", "meta": {"OBJECT_NAME": "COSMOS 2251 DEB", "OBJECT_ID": "1993-036DV", "EPOCH": "2025-12-22T04:15:24.617664", "MEAN_MOTION": 13.68623564, "ECCENTRICITY": 0.03249247, "INCLINATION": 74.052, "RA_OF_ASC_NODE": 25.0814, "ARG_OF_PERICENTER": 195.2079, "MEAN_ANOMALY": 238.852, "EPHEMERIS_TYPE": 0, "CLASSIFICATION_TYPE": "U", "NORAD_CAT_ID": 33916, "ELEMENT_SET_NO": 999, "REV_AT_EPOCH": 84020, "BSTAR": 0.00030506163, "MEAN_MOTION_DOT": 3.56e-06, "MEAN_MOTION_DDOT": 0}, "tle": {"line1": "1 33916U 93036DV  25356.17736826  .00000356  00000+0  30506-3 0  9994", "line2": "2 33916  74.0520  25.0814 0324924 195.2079 238.8520 13.68623564840205"}}, "geometry": {"type": "Point", "coordinates": [-57.63688671517323, -73.89156035352097]}}]}